OBJECT_NAME,OBJECT_ID,EPOCH,MEAN_MOTION,ECCENTRICITY,INCLINATION,RA_OF_ASC_NODE,ARG_OF_PERICENTER,MEAN_ANOMALY,EPHEMERIS_TYPE,CLASSIFICATION_TYPE,NORAD_CAT_ID,ELEMENT_SET_NO,REV_AT_EPOCH,BSTAR,MEAN_MOTION_DOT,MEAN_MOTION_DDOT
GAOFEN-3,2016-049A,2026-07-15T21:01:11.064864,14.42218348,.0001764,98.4009,204.2288,84.5792,275.5599,0,U,41727,999,52278,-.29523E-4,-.141E-5,0
SKYSAT-C4,2016-058B,2026-07-15T11:56:16.479744,15.49444803,.0003425,96.9158,217.0987,116.4408,243.7197,0,U,41771,999,54985,.21162188E-3,.11548E-3,0
SKYSAT-C5,2016-058C,2026-07-15T08:12:09.018720,15.33720350,.00025669,97.0454,235.7193,160.1031,200.0313,0,U,41772,999,54806,.12741023E-3,.408E-4,0
SKYSAT-C2,2016-058D,2026-07-15T00:38:38.303808,15.42678066,.00015194,97.0156,217.0836,354.7019,5.4213,0,U,41773,999,54934,.16514772E-3,.7118E-4,0
SKYSAT-C3,2016-058E,2026-07-15T00:59:04.071840,15.53702651,.00025158,96.8991,225.8356,132.0460,228.1009,0,U,41774,999,55043,.23176588E-3,.14739E-3,0
ALSAT-1B,2016-059C,2026-07-15T20:27:41.685984,14.72294561,.0010341,97.7749,204.3793,127.7327,232.4819,0,U,41785,999,52479,.38487E-4,.196E-5,0
PATHFINDER 1,2016-059E,2026-07-15T16:51:21.335328,14.67693548,.0029832,97.8177,194.6930,114.1713,246.2616,0,U,41787,999,52389,.57225E-4,.281E-5,0
SCATSAT 1,2016-059H,2026-07-15T18:03:56.068128,14.79588015,.0055253,98.1178,260.8119,154.7791,205.6137,0,U,41790,999,10581,.90537E-4,.639E-5,0
GOKTURK 1A,2016-073A,2026-07-15T20:07:18.840000,14.62793595,.00014,98.1220,91.0596,80.8290,279.3070,0,U,41875,999,51301,.52159E-4,.219E-5,0
RESOURCESAT-2A,2016-074A,2026-07-15T20:34:22.480032,14.21607537,.0002388,98.7525,270.1256,27.3106,332.8196,0,U,41877,999,49837,-.10401E-3,-.272E-5,0
CARTOSAT-2D,2017-008A,2026-07-15T19:25:11.468064,15.19285629,.0006047,97.4094,255.5774,136.2946,223.8768,0,U,41948,999,52192,.53175E-4,.1055E-4,0
SENTINEL-2B,2017-013A,2026-07-15T19:24:49.626144,14.30815336,.0001203,98.5690,271.1781,89.7922,270.3399,0,U,42063,999,48873,.46779E-4,.79E-6,0
CARTOSAT-2E,2017-036C,2026-07-15T21:25:38.256096,15.19256691,.0003298,97.4263,256.2192,186.2101,173.9093,0,U,42767,999,50250,.78863E-4,.1595E-4,0
FORMOSAT-5,2017-049A,2026-07-15T17:47:47.920704,14.50907936,.0011303,98.2246,271.4158,2.1662,357.9580,0,U,42920,999,47081,.22697E-4,.46E-6,0
SENTINEL-5P,2017-064A,2026-07-15T19:39:34.591104,14.19523350,.0001136,98.7929,138.7478,93.1650,266.9656,0,U,42969,999,45362,.24074E-4,.6E-7,0
SKYSAT-C11,2017-068A,2026-07-15T08:52:57.135072,15.59329614,.00011496,97.4378,346.4626,158.8769,201.2535,0,U,42987,999,48763,.22104418E-3,.17307E-3,0
SKYSAT-C10,2017-068B,2026-07-15T09:22:51.622464,15.35118664,.00014527,97.4540,333.5268,109.5270,250.6130,0,U,42988,999,48668,.1754806E-3,.5898E-4,0
SKYSAT-C9,2017-068C,2026-07-15T15:55:52.872960,15.42221766,.0008613,97.4459,335.0137,43.4004,316.7920,0,U,42989,999,48714,.19016E-3,.8086E-4,0
SKYSAT-C8,2017-068D,2026-07-15T20:08:55.404096,15.37499297,.0001216,97.4558,333.8907,103.0009,257.1371,0,U,42990,999,48671,.16547E-3,.6001E-4,0
SKYSAT-C7,2017-068E,2026-07-15T20:01:00.559200,15.37449212,.0005674,97.4569,334.8766,19.1816,340.9641,0,U,42991,999,48677,.15908E-3,.5759E-4,0
SKYSAT-C6,2017-068F,2026-07-15T09:19:43.105440,15.34171439,.00051104,97.4605,334.2774,88.9992,271.1836,0,U,42992,999,48664,.15351165E-3,.4997E-4,0
CARTOSAT-2F,2018-004A,2026-07-15T20:37:41.841984,15.19170991,.0002367,97.4774,256.2116,130.0856,230.0586,0,U,43111,999,47168,-.27033E-5,-.124E-5,0
GAOFEN-1 02,2018-031A,2026-07-15T21:32:51.230688,14.76472337,.0001489,98.0518,259.3423,283.7903,76.3141,0,U,43259,999,44693,.38622E-4,.217E-5,0
GAOFEN-1 03,2018-031B,2026-07-15T21:01:19.315200,14.76462959,.0002359,98.0503,259.1758,13.8517,346.2757,0,U,43260,999,44692,.5224E-4,.312E-5,0
GAOFEN-1 04,2018-031D,2026-07-15T20:26:19.789152,14.76469515,.0001276,98.0519,259.3458,54.4660,305.6668,0,U,43262,999,44691,-.21639E-4,-.202E-5,0
SENTINEL-3B,2018-039A,2026-07-15T19:15:52.125696,14.26736422,.0001154,98.6236,263.9224,119.6296,240.5000,0,U,43437,999,42820,.35746E-4,.43E-6,0
GAOFEN-5 01,2018-043A,2026-07-15T20:00:30.716640,14.60623527,.0002055,98.4590,169.0249,30.8628,329.2692,0,U,43461,999,43587,.35581E-4,.124E-5,0
GAOFEN-6,2018-048A,2026-07-15T20:58:51.604896,14.76383900,.0012128,98.0962,259.5774,79.5863,280.6712,0,U,43484,999,43762,.56952E-4,.343E-5,0
GAOFEN-11 01,2018-063A,2026-07-15T20:40:03.789408,15.56077432,.0003127,97.1274,263.6721,196.5954,163.5199,0,U,43585,999,44480,.11734E-3,.8084E-4,0
ICESAT-2,2018-070A,2026-07-15T16:53:51.883872,15.28183034,.0005635,92.0096,298.6853,57.9421,302.2374,0,U,43613,999,43681,.19992E-3,.5492E-4,0
