GAOFEN-3                
1 41727U 16049A   26196.87582251 -.00000141  00000+0 -29523-4 0  9995
2 41727  98.4009 204.2288 0001764  84.5792 275.5599 14.42218348522785
SKYSAT-C4               
1 41771U 16058B   26196.49741296  .00011548  00000+0  21162-3 0  9999
2 41771  96.9158 217.0987 0003425 116.4408 243.7197 15.49444803549858
SKYSAT-C5               
1 41772U 16058C   26196.34177105  .00004080  00000+0  12741-3 0  9992
2 41772  97.0454 235.7193 0002566 160.1031 200.0313 15.33720350548064
SKYSAT-C2               
1 41773U 16058D   26196.02683222  .00007118  00000+0  16515-3 0  9998
2 41773  97.0156 217.0836 0001519 354.7019   5.4213 15.42678066549349
SKYSAT-C3               
1 41774U 16058E   26196.04101935  .00014739  00000+0  23177-3 0  9996
2 41774  96.8991 225.8356 0002515 132.0460 228.1009 15.53702651550431
ALSAT-1B                
1 41785U 16059C   26196.85256581  .00000196  00000+0  38487-4 0  9999
2 41785  97.7749 204.3793 0010341 127.7327 232.4819 14.72294561524793
PATHFINDER 1            
1 41787U 16059E   26196.70233027  .00000281  00000+0  57225-4 0  9991
2 41787  97.8177 194.6930 0029832 114.1713 246.2616 14.67693548523899
SCATSAT 1               
1 41790U 16059H   26196.75273227  .00000639  00000+0  90537-4 0  9996
2 41790  98.1178 260.8119 0055253 154.7791 205.6137 14.79588015105815
GOKTURK 1A              
1 41875U 16073A   26196.83841250  .00000219  00000+0  52159-4 0  9994
2 41875  98.1220  91.0596 0001400  80.8290 279.3070 14.62793595513010
RESOURCESAT-2A          
1 41877U 16074A   26196.85720463 -.00000272  00000+0 -10401-3 0  9995
2 41877  98.7525 270.1256 0002388  27.3106 332.8196 14.21607537498377
CARTOSAT-2D             
1 41948U 17008A   26196.80916051  .00001055  00000+0  53175-4 0  9991
2 41948  97.4094 255.5774 0006047 136.2946 223.8768 15.19285629521927
SENTINEL-2B             
1 42063U 17013A   26196.80890771  .00000079  00000+0  46779-4 0  9993
2 42063  98.5690 271.1781 0001203  89.7922 270.3399 14.30815336488731
CARTOSAT-2E             
1 42767U 17036C   26196.89280389  .00001595  00000+0  78863-4 0  9999
2 42767  97.4263 256.2192 0003298 186.2101 173.9093 15.19256691502506
FORMOSAT-5              
1 42920U 17049A   26196.74152686  .00000046  00000+0  22697-4 0  9990
2 42920  98.2246 271.4158 0011303   2.1662 357.9580 14.50907936470814
SENTINEL-5P             
1 42969U 17064A   26196.81915036  .00000006  00000+0  24074-4 0  9991
2 42969  98.7929 138.7478 0001136  93.1650 266.9656 14.19523350453622
SKYSAT-C11              
1 42987U 17068A   26196.37010573  .00017307  00000+0  22104-3 0  9991
2 42987  97.4378 346.4626 0001149 158.8769 201.2535 15.59329614487631
SKYSAT-C10              
1 42988U 17068B   26196.39087526  .00005898  00000+0  17548-3 0  9994
2 42988  97.4540 333.5268 0001452 109.5270 250.6130 15.35118664486687
SKYSAT-C9               
1 42989U 17068C   26196.66380640  .00008086  00000+0  19016-3 0  9992
2 42989  97.4459 335.0137 0008613  43.4004 316.7920 15.42221766487145
SKYSAT-C8               
1 42990U 17068D   26196.83953014  .00006001  00000+0  16547-3 0  9995
2 42990  97.4558 333.8907 0001216 103.0009 257.1371 15.37499297486718
SKYSAT-C7               
1 42991U 17068E   26196.83403425  .00005759  00000+0  15908-3 0  9991
2 42991  97.4569 334.8766 0005674  19.1816 340.9641 15.37449212486779
SKYSAT-C6               
1 42992U 17068F   26196.38869335  .00004997  00000+0  15351-3 0  9993
2 42992  97.4605 334.2774 0005110  88.9992 271.1836 15.34171439486645
CARTOSAT-2F             
1 43111U 18004A   26196.85951206 -.00000124  00000+0 -27033-5 0  9991
2 43111  97.4774 256.2116 0002367 130.0856 230.0586 15.19170991471687
GAOFEN-1 02             
1 43259U 18031A   26196.89781517  .00000217  00000+0  38622-4 0  9990
2 43259  98.0518 259.3423 0001489 283.7903  76.3141 14.76472337446930
GAOFEN-1 03             
1 43260U 18031B   26196.87591800  .00000312  00000+0  52240-4 0  9992
2 43260  98.0503 259.1758 0002359  13.8517 346.2757 14.76462959446925
GAOFEN-1 04             
1 43262U 18031D   26196.85161793 -.00000202  00000+0 -21639-4 0  9994
2 43262  98.0519 259.3458 0001276  54.4660 305.6668 14.76469515446914
SENTINEL-3B             
1 43437U 18039A   26196.80268664  .00000043  00000+0  35746-4 0  9991
2 43437  98.6236 263.9224 0001154 119.6296 240.5000 14.26736422428204
GAOFEN-5 01             
1 43461U 18043A   26196.83368885  .00000124  00000+0  35581-4 0  9999
2 43461  98.4590 169.0249 0002055  30.8628 329.2692 14.60623527435871
GAOFEN-6                
1 43484U 18048A   26196.87420839  .00000343  00000+0  56952-4 0  9999
2 43484  98.0962 259.5774 0012128  79.5863 280.6712 14.76383900437629
GAOFEN-11 01            
1 43585U 18063A   26196.86115497  .00008084  00000+0  11734-3 0  9996
2 43585  97.1274 263.6721 0003127 196.5954 163.5199 15.56077432444800
ICESAT-2                
1 43613U 18070A   26196.70407273  .00005492  00000+0  19992-3 0  9999
2 43613  92.0096 298.6853 0005635  57.9421 302.2374 15.28183034436811
